[{"OBJECT_NAME":"BEIDOU-3 G3","OBJECT_ID":"2020-040A","EPOCH":"2026-04-26T12:27:08.906976","MEAN_MOTION":1.00270512,"ECCENTRICITY":0.0003731,"INCLINATION":2.3224,"RA_OF_ASC_NODE":67.2935,"ARG_OF_PERICENTER":329.1363,"MEAN_ANOMALY":115.419,"EPHEMERIS_TYPE":0,"CLASSIFICATION_TYPE":"U","NORAD_CAT_ID":45807,"ELEMENT_SET_NO":999,"REV_AT_EPOCH":2155,"BSTAR":0,"MEAN_MOTION_DOT":-3.64e-6,"MEAN_MOTION_DDOT":0},{"OBJECT_NAME":"APSTAR-6D","OBJECT_ID":"2020-045A","EPOCH":"2026-04-24T20:05:05.213760","MEAN_MOTION":1.00271734,"ECCENTRICITY":0.00030073,"INCLINATION":0.0529,"RA_OF_ASC_NODE":81.5973,"ARG_OF_PERICENTER":9.9326,"MEAN_ANOMALY":196.6399,"EPHEMERIS_TYPE":0,"CLASSIFICATION_TYPE":"U","NORAD_CAT_ID":45863,"ELEMENT_SET_NO":999,"REV_AT_EPOCH":2132,"BSTAR":0,"MEAN_MOTION_DOT":-3.32e-6,"MEAN_MOTION_DDOT":0},{"OBJECT_NAME":"KOREASAT 116","OBJECT_ID":"2020-048A","EPOCH":"2026-04-26T12:24:16.697088","MEAN_MOTION":1.00274663,"ECCENTRICITY":9.19e-5,"INCLINATION":0.0138,"RA_OF_ASC_NODE":271.99,"ARG_OF_PERICENTER":113.0536,"MEAN_ANOMALY":131.7283,"EPHEMERIS_TYPE":0,"CLASSIFICATION_TYPE":"U","NORAD_CAT_ID":45920,"ELEMENT_SET_NO":999,"REV_AT_EPOCH":2112,"BSTAR":0,"MEAN_MOTION_DOT":-3.74e-6,"MEAN_MOTION_DDOT":0},{"OBJECT_NAME":"EXPRESS 103","OBJECT_ID":"2020-053A","EPOCH":"2026-04-24T14:06:41.530752","MEAN_MOTION":1.00271329,"ECCENTRICITY":5.393e-5,"INCLINATION":0.0139,"RA_OF_ASC_NODE":255.8354,"ARG_OF_PERICENTER":23.7967,"MEAN_ANOMALY":241.1699,"EPHEMERIS_TYPE":0,"CLASSIFICATION_TYPE":"U","NORAD_CAT_ID":45985,"ELEMENT_SET_NO":999,"REV_AT_EPOCH":2111,"BSTAR":0,"MEAN_MOTION_DOT":-2.95e-6,"MEAN_MOTION_DDOT":0},{"OBJECT_NAME":"EXPRESS 80","OBJECT_ID":"2020-053B","EPOCH":"2026-04-24T04:33:17.812800","MEAN_MOTION":1.00439847,"ECCENTRICITY":0.00103192,"INCLINATION":0.0234,"RA_OF_ASC_NODE":276.1549,"ARG_OF_PERICENTER":169.794,"MEAN_ANOMALY":274.1604,"EPHEMERIS_TYPE":0,"CLASSIFICATION_TYPE":"U","NORAD_CAT_ID":45986,"ELEMENT_SET_NO":999,"REV_AT_EPOCH":2109,"BSTAR":0,"MEAN_MOTION_DOT":-1.83e-6,"MEAN_MOTION_DDOT":0},{"OBJECT_NAME":"BREEZE-M R/B","OBJECT_ID":"2020-053C","EPOCH":"2026-04-26T02:38:11.535072","MEAN_MOTION":1.03581426,"ECCENTRICITY":0.4345827,"INCLINATION":7.375,"RA_OF_ASC_NODE":78.9616,"ARG_OF_PERICENTER":76.7342,"MEAN_ANOMALY":327.0581,"EPHEMERIS_TYPE":0,"CLASSIFICATION_TYPE":"U","NORAD_CAT_ID":45987,"ELEMENT_SET_NO":999,"REV_AT_EPOCH":2170,"BSTAR":0,"MEAN_MOTION_DOT":-1.72e-6,"MEAN_MOTION_DDOT":0},{"OBJECT_NAME":"BSAT-4B","OBJECT_ID":"2020-056A","EPOCH":"2026-04-26T12:22:39.352800","MEAN_MOTION":1.00270713,"ECCENTRICITY":0.0003054,"INCLINATION":0.0696,"RA_OF_ASC_NODE":108.1135,"ARG_OF_PERICENTER":345.3873,"MEAN_ANOMALY":56.5065,"EPHEMERIS_TYPE":0,"CLASSIFICATION_TYPE":"U","NORAD_CAT_ID":46112,"ELEMENT_SET_NO":999,"REV_AT_EPOCH":2087,"BSTAR":0,"MEAN_MOTION_DOT":-3.62e-6,"MEAN_MOTION_DDOT":0},{"OBJECT_NAME":"MEV-2","OBJECT_ID":"2020-056B","EPOCH":"2026-04-26T08:25:43.609152","MEAN_MOTION":1.00269975,"ECCENTRICITY":0.0001333,"INCLINATION":0.0156,"RA_OF_ASC_NODE":78.2725,"ARG_OF_PERICENTER":352.351,"MEAN_ANOMALY":269.1304,"EPHEMERIS_TYPE":0,"CLASSIFICATION_TYPE":"U","NORAD_CAT_ID":46113,"ELEMENT_SET_NO":999,"REV_AT_EPOCH":8003,"BSTAR":0,"MEAN_MOTION_DOT":0,"MEAN_MOTION_DDOT":0},{"OBJECT_NAME":"GALAXY 30 (G-30)","OBJECT_ID":"2020-056C","EPOCH":"2026-04-26T10:57:10.298016","MEAN_MOTION":1.00271118,"ECCENTRICITY":0.0002469,"INCLINATION":0.0135,"RA_OF_ASC_NODE":234.6557,"ARG_OF_PERICENTER":173.0737,"MEAN_ANOMALY":206.018,"EPHEMERIS_TYPE":0,"CLASSIFICATION_TYPE":"U","NORAD_CAT_ID":46114,"ELEMENT_SET_NO":999,"REV_AT_EPOCH":2077,"BSTAR":0,"MEAN_MOTION_DOT":0,"MEAN_MOTION_DDOT":0},{"OBJECT_NAME":"ATLAS 5 CENTAUR DEB","OBJECT_ID":"2018-079CA","EPOCH":"2026-04-25T05:46:02.199072","MEAN_MOTION":1.79056256,"ECCENTRICITY":0.46762586,"INCLINATION":13.4484,"RA_OF_ASC_NODE":43.5475,"ARG_OF_PERICENTER":293.7601,"MEAN_ANOMALY":24.7602,"EPHEMERIS_TYPE":0,"CLASSIFICATION_TYPE":"U","NORAD_CAT_ID":46602,"ELEMENT_SET_NO":999,"REV_AT_EPOCH":3903,"BSTAR":0,"MEAN_MOTION_DOT":-1.04e-6,"MEAN_MOTION_DDOT":0},{"OBJECT_NAME":"ATLAS 5 CENTAUR DEB","OBJECT_ID":"2018-079CC","EPOCH":"2026-04-25T00:21:07.954560","MEAN_MOTION":1.74519861,"ECCENTRICITY":0.46028313,"INCLINATION":13.399,"RA_OF_ASC_NODE":57.5648,"ARG_OF_PERICENTER":261.8866,"MEAN_ANOMALY":45.3351,"EPHEMERIS_TYPE":0,"CLASSIFICATION_TYPE":"U","NORAD_CAT_ID":46604,"ELEMENT_SET_NO":999,"REV_AT_EPOCH":4097,"BSTAR":0,"MEAN_MOTION_DOT":-8.0e-7,"MEAN_MOTION_DDOT":0},{"OBJECT_NAME":"GAOFEN-13 01","OBJECT_ID":"2020-071A","EPOCH":"2026-04-24T19:21:00.537408","MEAN_MOTION":1.00266872,"ECCENTRICITY":0.00425155,"INCLINATION":0.3844,"RA_OF_ASC_NODE":84.9109,"ARG_OF_PERICENTER":122.1725,"MEAN_ANOMALY":54.1283,"EPHEMERIS_TYPE":0,"CLASSIFICATION_TYPE":"U","NORAD_CAT_ID":46610,"ELEMENT_SET_NO":999,"REV_AT_EPOCH":2038,"BSTAR":0,"MEAN_MOTION_DOT":-3.77e-6,"MEAN_MOTION_DDOT":0},{"OBJECT_NAME":"ATLAS 5 CENTAUR DEB","OBJECT_ID":"2018-079CK","EPOCH":"2026-04-25T11:22:15.639168","MEAN_MOTION":1.70493306,"ECCENTRICITY":0.57702143,"INCLINATION":12.2321,"RA_OF_ASC_NODE":25.8385,"ARG_OF_PERICENTER":335.122,"MEAN_ANOMALY":5.6902,"EPHEMERIS_TYPE":0,"CLASSIFICATION_TYPE":"U","NORAD_CAT_ID":46657,"ELEMENT_SET_NO":999,"REV_AT_EPOCH":3443,"BSTAR":0,"MEAN_MOTION_DOT":-1.82e-6,"MEAN_MOTION_DDOT":0},{"OBJECT_NAME":"ATLAS 5 CENTAUR DEB","OBJECT_ID":"2018-079DB","EPOCH":"2026-04-24T22:55:02.526240","MEAN_MOTION":1.71842066,"ECCENTRICITY":0.47233485,"INCLINATION":12.3482,"RA_OF_ASC_NODE":67.3576,"ARG_OF_PERICENTER":258.7823,"MEAN_ANOMALY":46.502,"EPHEMERIS_TYPE":0,"CLASSIFICATION_TYPE":"U","NORAD_CAT_ID":46846,"ELEMENT_SET_NO":999,"REV_AT_EPOCH":3438,"BSTAR":0,"MEAN_MOTION_DOT":-8.5e-7,"MEAN_MOTION_DDOT":0},{"OBJECT_NAME":"ATLAS 5 CENTAUR DEB","OBJECT_ID":"2018-079DC","EPOCH":"2026-04-24T23:00:02.939904","MEAN_MOTION":1.7728473,"ECCENTRICITY":0.47049818,"INCLINATION":13.5147,"RA_OF_ASC_NODE":46.1269,"ARG_OF_PERICENTER":287.04,"MEAN_ANOMALY":27.9633,"EPHEMERIS_TYPE":0,"CLASSIFICATION_TYPE":"U","NORAD_CAT_ID":46847,"ELEMENT_SET_NO":999,"REV_AT_EPOCH":3549,"BSTAR":0,"MEAN_MOTION_DOT":-1.0e-6,"MEAN_MOTION_DDOT":0},{"OBJECT_NAME":"ATLAS 5 CENTAUR DEB","OBJECT_ID":"2018-079DH","EPOCH":"2026-04-25T13:41:35.539872","MEAN_MOTION":1.80930713,"ECCENTRICITY":0.50466517,"INCLINATION":14.0654,"RA_OF_ASC_NODE":29.0998,"ARG_OF_PERICENTER":325.5187,"MEAN_ANOMALY":10.3117,"EPHEMERIS_TYPE":0,"CLASSIFICATION_TYPE":"U","NORAD_CAT_ID":46852,"ELEMENT_SET_NO":999,"REV_AT_EPOCH":2485,"BSTAR":0,"MEAN_MOTION_DOT":-1.73e-6,"MEAN_MOTION_DDOT":0},{"OBJECT_NAME":"ATLAS 5 CENTAUR DEB","OBJECT_ID":"2018-079DN","EPOCH":"2026-04-24T21:37:12.185472","MEAN_MOTION":1.69095455,"ECCENTRICITY":0.46342085,"INCLINATION":12.5264,"RA_OF_ASC_NODE":78.1201,"ARG_OF_PERICENTER":228.678,"MEAN_ANOMALY":81.0779,"EPHEMERIS_TYPE":0,"CLASSIFICATION_TYPE":"U","NORAD_CAT_ID":46857,"ELEMENT_SET_NO":999,"REV_AT_EPOCH":3382,"BSTAR":0,"MEAN_MOTION_DOT":-6.5e-7,"MEAN_MOTION_DDOT":0}]
