BEIDOU-3 G3             
1 45807U 20040A   26116.51885309 -.00000364  00000+0  00000+0 0  9997
2 45807   2.3224  67.2935 0003731 329.1363 115.4190  1.00270512 21554
APSTAR-6D               
1 45863U 20045A   26114.83686590 -.00000332  00000+0  00000+0 0  9993
2 45863   0.0529  81.5973 0003007   9.9326 196.6399  1.00271734 21322
KOREASAT 116            
1 45920U 20048A   26116.51685992 -.00000374  00000+0  00000+0 0  9998
2 45920   0.0138 271.9900 0000919 113.0536 131.7283  1.00274663 21120
EXPRESS 103             
1 45985U 20053A   26114.58798068 -.00000295  00000+0  00000+0 0  9991
2 45985   0.0139 255.8354 0000539  23.7967 241.1699  1.00271329 21111
EXPRESS 80              
1 45986U 20053B   26114.18978950 -.00000183  00000+0  00000+0 0  9994
2 45986   0.0234 276.1549 0010319 169.7940 274.1604  1.00439847 21099
BREEZE-M R/B            
1 45987U 20053C   26116.10985573 -.00000172  00000+0  00000+0 0  9996
2 45987   7.3750  78.9616 4345827  76.7342 327.0581  1.03581426 21702
BSAT-4B                 
1 46112U 20056A   26116.51573325 -.00000362  00000+0  00000+0 0  9994
2 46112   0.0696 108.1135 0003054 345.3873  56.5065  1.00270713 20876
MEV-2                   
1 46113U 20056B   26116.35119918  .00000000  00000+0  00000+0 0  9999
2 46113   0.0156  78.2725 0001333 352.3510 269.1304  1.00269975 80034
GALAXY 30 (G-30)        
1 46114U 20056C   26116.45636919  .00000000  00000+0  00000+0 0  9996
2 46114   0.0135 234.6557 0002469 173.0737 206.0180  1.00271118 20772
ATLAS 5 CENTAUR DEB     
1 46602U 18079CA  26115.24030323 -.00000104  00000+0  00000+0 0  9999
2 46602  13.4484  43.5475 4676258 293.7601  24.7602  1.79056256 39035
ATLAS 5 CENTAUR DEB     
1 46604U 18079CC  26115.01467540 -.00000080  00000+0  00000+0 0  9994
2 46604  13.3990  57.5648 4602831 261.8866  45.3351  1.74519861 40976
GAOFEN-13 01            
1 46610U 20071A   26114.80625622 -.00000377  00000+0  00000+0 0  9998
2 46610   0.3844  84.9109 0042515 122.1725  54.1283  1.00266872 20384
ATLAS 5 CENTAUR DEB     
1 46657U 18079CK  26115.47379212 -.00000182  00000+0  00000+0 0  9993
2 46657  12.2321  25.8385 5770214 335.1220   5.6902  1.70493306 34433
ATLAS 5 CENTAUR DEB     
1 46846U 18079DB  26114.95489035 -.00000085  00000+0  00000+0 0  9992
2 46846  12.3482  67.3576 4723348 258.7823  46.5020  1.71842066 34380
ATLAS 5 CENTAUR DEB     
1 46847U 18079DC  26114.95836736 -.00000100  00000+0  00000+0 0  9995
2 46847  13.5147  46.1269 4704981 287.0400  27.9633  1.77284730 35494
ATLAS 5 CENTAUR DEB     
1 46852U 18079DH  26115.57055023 -.00000173  00000+0  00000+0 0  9992
2 46852  14.0654  29.0998 5046651 325.5187  10.3117  1.80930713 24856
ATLAS 5 CENTAUR DEB     
1 46857U 18079DN  26114.90083548 -.00000065  00000+0  00000+0 0  9996
2 46857  12.5264  78.1201 4634208 228.6780  81.0779  1.69095455 33823
